{
  "norad_id": 61884,
  "name": "STARLINK-11359 [DTC]",
  "history": [
    {
      "epoch": "2026-03-28T21:38:38.943168Z",
      "apogee_km": 360.84626538184875,
      "perigee_km": 358.67800943942984,
      "latitude_deg": 2.279798870851521e-05,
      "longitude_deg": 110.45852416642745,
      "height_km": 360.59564936957247,
      "semi_major_axis_km": 6737.899137410639,
      "eccentricity": 0.0001609,
      "inclination_deg": 53.1592,
      "raan_deg": 261.4364,
      "arg_perigee_deg": 85.8023,
      "mean_anomaly_deg": 274.3179,
      "mean_motion_rev_day": 15.69697634
    }
  ]
}